CCSDS_OMM_VERS = 2.0
CREATION_DATE  = 
ORIGINATOR     = 

OBJECT_NAME    = GUOWANG GROUP 20 OBJECT C
OBJECT_ID      = 2026-047C
CENTER_NAME    = EARTH
REF_FRAME      = TEME
TIME_SYSTEM    = UTC
MEAN_ELEMENT_THEORY = SGP/SGP4

EPOCH          = 2026-04-02T12:08:18.567744
MEAN_MOTION    = 13.86320500
ECCENTRICITY   = .00006698
INCLINATION    = 50.0019
RA_OF_ASC_NODE = 334.0677
ARG_OF_PERICENTER = 236.5521
MEAN_ANOMALY   = 123.5312

EPHEMERIS_TYPE = 0
CLASSIFICATION_TYPE = U
NORAD_CAT_ID   = 68131
ELEMENT_SET_NO = 999
REV_AT_EPOCH   = 290
BSTAR          = .42135642E-4
MEAN_MOTION_DOT = -.96E-6
MEAN_MOTION_DDOT = 0

CCSDS_OMM_VERS = 2.0
CREATION_DATE  = 
ORIGINATOR     = 

OBJECT_NAME    = GUOWANG GROUP 20 OBJECT D
OBJECT_ID      = 2026-047D
CENTER_NAME    = EARTH
REF_FRAME      = TEME
TIME_SYSTEM    = UTC
MEAN_ELEMENT_THEORY = SGP/SGP4

EPOCH          = 2026-04-02T13:48:14.018400
MEAN_MOTION    = 13.86594040
ECCENTRICITY   = .00007103
INCLINATION    = 50.0067
RA_OF_ASC_NODE = 333.7806
ARG_OF_PERICENTER = 245.0360
MEAN_ANOMALY   = 115.0463

EPHEMERIS_TYPE = 0
CLASSIFICATION_TYPE = U
NORAD_CAT_ID   = 68132
ELEMENT_SET_NO = 999
REV_AT_EPOCH   = 290
BSTAR          = .51916391E-4
MEAN_MOTION_DOT = -.84E-6
MEAN_MOTION_DDOT = 0

CCSDS_OMM_VERS = 2.0
CREATION_DATE  = 
ORIGINATOR     = 

OBJECT_NAME    = GUOWANG GROUP 20 OBJECT E
OBJECT_ID      = 2026-047E
CENTER_NAME    = EARTH
REF_FRAME      = TEME
TIME_SYSTEM    = UTC
MEAN_ELEMENT_THEORY = SGP/SGP4

EPOCH          = 2026-04-02T17:11:29.001696
MEAN_MOTION    = 13.86278934
ECCENTRICITY   = .00006404
INCLINATION    = 50.0032
RA_OF_ASC_NODE = 333.1791
ARG_OF_PERICENTER = 212.5320
MEAN_ANOMALY   = 147.5538

EPHEMERIS_TYPE = 0
CLASSIFICATION_TYPE = U
NORAD_CAT_ID   = 68133
ELEMENT_SET_NO = 999
REV_AT_EPOCH   = 293
BSTAR          = .35303012E-4
MEAN_MOTION_DOT = -.104E-5
MEAN_MOTION_DDOT = 0

CCSDS_OMM_VERS = 2.0
CREATION_DATE  = 
ORIGINATOR     = 

OBJECT_NAME    = GUOWANG GROUP 20 OBJECT F
OBJECT_ID      = 2026-047F
CENTER_NAME    = EARTH
REF_FRAME      = TEME
TIME_SYSTEM    = UTC
MEAN_ELEMENT_THEORY = SGP/SGP4

EPOCH          = 2026-04-02T13:36:24.060096
MEAN_MOTION    = 13.87190720
ECCENTRICITY   = .0000629
INCLINATION    = 50.0093
RA_OF_ASC_NODE = 333.7419
ARG_OF_PERICENTER = 256.4099
MEAN_ANOMALY   = 103.6728

EPHEMERIS_TYPE = 0
CLASSIFICATION_TYPE = U
NORAD_CAT_ID   = 68134
ELEMENT_SET_NO = 999
REV_AT_EPOCH   = 290
BSTAR          = .95092278E-4
MEAN_MOTION_DOT = -.33E-6
MEAN_MOTION_DDOT = 0

CCSDS_OMM_VERS = 2.0
CREATION_DATE  = 
ORIGINATOR     = 

OBJECT_NAME    = GUOWANG GROUP 20 OBJECT G
OBJECT_ID      = 2026-047G
CENTER_NAME    = EARTH
REF_FRAME      = TEME
TIME_SYSTEM    = UTC
MEAN_ELEMENT_THEORY = SGP/SGP4

EPOCH          = 2026-04-02T13:40:04.450944
MEAN_MOTION    = 13.87026021
ECCENTRICITY   = .00009279
INCLINATION    = 50.0112
RA_OF_ASC_NODE = 333.7611
ARG_OF_PERICENTER = 224.2337
MEAN_ANOMALY   = 135.8486

EPHEMERIS_TYPE = 0
CLASSIFICATION_TYPE = U
NORAD_CAT_ID   = 68135
ELEMENT_SET_NO = 999
REV_AT_EPOCH   = 291
BSTAR          = .13110379E-3
MEAN_MOTION_DOT = .9E-7
MEAN_MOTION_DDOT = 0

CCSDS_OMM_VERS = 2.0
CREATION_DATE  = 
ORIGINATOR     = 

OBJECT_NAME    = GUOWANG GROUP 20 OBJECT H
OBJECT_ID      = 2026-047H
CENTER_NAME    = EARTH
REF_FRAME      = TEME
TIME_SYSTEM    = UTC
MEAN_ELEMENT_THEORY = SGP/SGP4

EPOCH          = 2026-04-02T11:48:51.915456
MEAN_MOTION    = 13.87381469
ECCENTRICITY   = .00009093
INCLINATION    = 50.0086
RA_OF_ASC_NODE = 334.0113
ARG_OF_PERICENTER = 305.9014
MEAN_ANOMALY   = 54.1799

EPHEMERIS_TYPE = 0
CLASSIFICATION_TYPE = U
NORAD_CAT_ID   = 68136
ELEMENT_SET_NO = 999
REV_AT_EPOCH   = 289
BSTAR          = .48250788E-4
MEAN_MOTION_DOT = -.88E-6
MEAN_MOTION_DDOT = 0

CCSDS_OMM_VERS = 2.0
CREATION_DATE  = 
ORIGINATOR     = 

OBJECT_NAME    = GUOWANG GROUP 20 OBJECT J
OBJECT_ID      = 2026-047J
CENTER_NAME    = EARTH
REF_FRAME      = TEME
TIME_SYSTEM    = UTC
MEAN_ELEMENT_THEORY = SGP/SGP4

EPOCH          = 2026-04-02T16:56:00.731328
MEAN_MOTION    = 13.87066479
ECCENTRICITY   = .00006698
INCLINATION    = 50.0058
RA_OF_ASC_NODE = 333.1317
ARG_OF_PERICENTER = 182.6269
MEAN_ANOMALY   = 177.4625

EPHEMERIS_TYPE = 0
CLASSIFICATION_TYPE = U
NORAD_CAT_ID   = 68137
ELEMENT_SET_NO = 999
REV_AT_EPOCH   = 293
BSTAR          = .24623265E-4
MEAN_MOTION_DOT = -.116E-5
MEAN_MOTION_DDOT = 0

CCSDS_OMM_VERS = 2.0
CREATION_DATE  = 
ORIGINATOR     = 

OBJECT_NAME    = CZ-8A R/B
OBJECT_ID      = 2026-047K
CENTER_NAME    = EARTH
REF_FRAME      = TEME
TIME_SYSTEM    = UTC
MEAN_ELEMENT_THEORY = SGP/SGP4

EPOCH          = 2026-04-02T22:59:25.399104
MEAN_MOTION    = 14.12232615
ECCENTRICITY   = .00447634
INCLINATION    = 49.9534
RA_OF_ASC_NODE = 330.3247
ARG_OF_PERICENTER = 221.6006
MEAN_ANOMALY   = 138.1493

EPHEMERIS_TYPE = 0
CLASSIFICATION_TYPE = U
NORAD_CAT_ID   = 68138
ELEMENT_SET_NO = 999
REV_AT_EPOCH   = 298
BSTAR          = .61130352E-4
MEAN_MOTION_DOT = -.4E-6
MEAN_MOTION_DDOT = 0

CCSDS_OMM_VERS = 2.0
CREATION_DATE  = 
ORIGINATOR     = 

OBJECT_NAME    = SHIYAN-30 03
OBJECT_ID      = 2026-048A
CENTER_NAME    = EARTH
REF_FRAME      = TEME
TIME_SYSTEM    = UTC
MEAN_ELEMENT_THEORY = SGP/SGP4

EPOCH          = 2026-04-02T22:24:32.351328
MEAN_MOTION    = 14.91763795
ECCENTRICITY   = .00025633
INCLINATION    = 35.0016
RA_OF_ASC_NODE = 358.7754
ARG_OF_PERICENTER = 48.1243
MEAN_ANOMALY   = 311.9680

EPHEMERIS_TYPE = 0
CLASSIFICATION_TYPE = U
NORAD_CAT_ID   = 68139
ELEMENT_SET_NO = 999
REV_AT_EPOCH   = 312
BSTAR          = .44147174E-3
MEAN_MOTION_DOT = .4508E-4
MEAN_MOTION_DDOT = 0

CCSDS_OMM_VERS = 2.0
CREATION_DATE  = 
ORIGINATOR     = 

OBJECT_NAME    = SHIYAN-30 04
OBJECT_ID      = 2026-048B
CENTER_NAME    = EARTH
REF_FRAME      = TEME
TIME_SYSTEM    = UTC
MEAN_ELEMENT_THEORY = SGP/SGP4

EPOCH          = 2026-04-02T22:25:32.295648
MEAN_MOTION    = 14.91761883
ECCENTRICITY   = .00010329
INCLINATION    = 34.9930
RA_OF_ASC_NODE = 358.7739
ARG_OF_PERICENTER = 49.2417
MEAN_ANOMALY   = 310.8378

EPHEMERIS_TYPE = 0
CLASSIFICATION_TYPE = U
NORAD_CAT_ID   = 68140
ELEMENT_SET_NO = 999
REV_AT_EPOCH   = 312
BSTAR          = .42136829E-3
MEAN_MOTION_DOT = .4301E-4
MEAN_MOTION_DDOT = 0

CCSDS_OMM_VERS = 2.0
CREATION_DATE  = 
ORIGINATOR     = 

OBJECT_NAME    = CZ-2D R/B
OBJECT_ID      = 2026-048C
CENTER_NAME    = EARTH
REF_FRAME      = TEME
TIME_SYSTEM    = UTC
MEAN_ELEMENT_THEORY = SGP/SGP4

EPOCH          = 2026-04-02T22:47:36.101760
MEAN_MOTION    = 14.95587587
ECCENTRICITY   = .00156467
INCLINATION    = 35.1310
RA_OF_ASC_NODE = 358.3305
ARG_OF_PERICENTER = 179.7272
MEAN_ANOMALY   = 180.3447

EPHEMERIS_TYPE = 0
CLASSIFICATION_TYPE = U
NORAD_CAT_ID   = 68141
ELEMENT_SET_NO = 999
REV_AT_EPOCH   = 313
BSTAR          = .24662387E-3
MEAN_MOTION_DOT = .2766E-4
MEAN_MOTION_DDOT = 0

CCSDS_OMM_VERS = 2.0
CREATION_DATE  = 
ORIGINATOR     = 

OBJECT_NAME    = STARLINK-36604
OBJECT_ID      = 2026-049A
CENTER_NAME    = EARTH
REF_FRAME      = TEME
TIME_SYSTEM    = UTC
MEAN_ELEMENT_THEORY = SGP/SGP4

EPOCH          = 2026-04-02T22:00:01.999584
MEAN_MOTION    = 15.75231392
ECCENTRICITY   = .00014959
INCLINATION    = 97.2851
RA_OF_ASC_NODE = 113.3730
ARG_OF_PERICENTER = 79.2192
MEAN_ANOMALY   = 259.5975

EPHEMERIS_TYPE = 0
CLASSIFICATION_TYPE = U
NORAD_CAT_ID   = 68142
ELEMENT_SET_NO = 999
REV_AT_EPOCH   = 452
BSTAR          = -.10138032E-2
MEAN_MOTION_DOT = -.14901E-2
MEAN_MOTION_DDOT = 0

